STARLINK-1821
1 46718U 20073BA  26090.83335647  .00101019  00000+0  23837-2 0  9990
2 46718  53.0466 121.9862 0003126 334.5935 196.9295 15.41085735  5864
